LUCKY-7                 
1 44406U 19038W   22242.84850605  .00003466  00000+0  18217-3 0  9997
2 44406  97.6452 212.3335 0020875 230.7808 129.1572 15.16198185174231
D-STAR ONE (EXOCONNECT) 
1 44410U 19038AA  22242.88068747  .00009387  00000+0  42005-3 0  9994
2 44410  97.6357 214.1126 0016239 224.6773 135.3155 15.21394999174402
NARSSCUBE-2             
1 44415U 19022E   22242.85436156  .00006263  00000+0  18783-3 0  9998
2 44415  51.6396 117.2294 0009944 327.9116  32.1260 15.35767217171547
DUCHIFAT-3              
1 44854U 19089C   22243.46308026  .00001878  00000+0  14868-3 0  9997
2 44854  36.9672  15.5181 0006831 105.1157 255.0393 15.01461869149214
OPS-SAT                 
1 44878U 19092F   22242.49143387  .00005534  00000+0  25171-3 0  9998
2 44878  97.4816  65.8641 0013561  83.0953 277.1824 15.21057632149447
FLORIPASAT-1            
1 44885U 19093G   22243.49578450  .00000789  00000+0  10269-3 0  9990
2 44885  97.8942 323.1083 0013301 311.1899  48.8181 14.83348543145979
HUSKYSAT-1 (HO-107)     
1 45119U 19071J   22243.48878672  .00019203  00000+0  37627-3 0  9993
2 45119  51.6373  49.9171 0008660  86.8697 273.3281 15.47360062144977
BY70-2                  
1 45857U 20042B   22243.52954531  .00002930  00000+0  38904-3 0  9994
2 45857  97.9533 319.6839 0009568 226.0653 133.9796 14.80527211116566
SALSAT                  
1 46495U 20068K   22242.84568600  .00001718  00000+0  12599-3 0  9998
2 46495  97.7328 184.1932 0017200  30.6524 329.5703 15.04762772105370
NETSAT-4                
1 46504U 20068U   22242.77780772  .00002134  00000+0  15979-3 0  9995
2 46504  97.7270 182.4507 0013105  73.1149 287.1513 15.03741275105216
NETSAT-3                
1 46505U 20068V   22242.79532492  .00000869  00000+0  67933-4 0  9993
2 46505  97.7271 182.3781 0012544  80.7447 279.5200 15.03678777105227
NETSAT-1                
1 46506U 20068W   22242.81446156  .00000947  00000+0  73670-4 0  9990
2 46506  97.7279 182.3213 0011565  91.3400 268.9154 15.03632754105220
NETSAT-2                
1 46507U 20068X   22242.82497040  .00001160  00000+0  89247-4 0  9995
2 46507  97.7281 182.3222 0010710  97.4656 262.7787 15.03617932105174
BY70-3                  
1 46839U 20079N   22243.44885796  .00016908  00000+0  36309-3 0  9999
2 46839  97.1931 314.6841 0006181  71.7306 342.8362 15.44741495101812
UVSQ-SAT                
1 47438U 21006AB  22242.59935433  .00003637  00000+0  19048-3 0  9991
2 47438  97.4308 300.0978 0012134  25.8999 334.2839 15.16377251 88511
SOMP2B                  
1 47445U 21006AJ  22243.34040231  .00003197  00000+0  16956-3 0  9992
2 47445  97.4279 300.4247 0011865  27.7032 332.4831 15.16017011 88616
DIY-1 (ARDUIQUBE)       
1 47963U 21022AH  22243.20688129  .00011319  00000+0  60235-3 0  9998
2 47963  97.5230 143.7703 0014275 229.8390 130.1592 15.15320887 78268
